FLOCK 4G-5              
1 62663U 25009BG  26068.45638436  .00011278  00000+0  40688-3 0  9997
2 62663  97.4058 151.2478 0002094 314.5072  45.5996 15.28679529 63699
STARLINK-35646          
1 66859U 25281M   26068.09242339  .00042308  00000+0  15374-2 0  9994
2 66859  43.0034 346.8924 0001953 259.9846 100.0785 15.27595831 16090
